{
    "links": {
        "self": "http://www.neowsapp.com/rest/v1/neo/3767153?api_key=iIulBulltgU6a56xZRHN4H3l9WmuAYTsLGpBGhQ2"
    },
    "id": "3767153",
    "neo_reference_id": "3767153",
    "name": "(2017 BD30)",
    "designation": "2017 BD30",
    "nasa_jpl_url": "http://ssd.jpl.nasa.gov/sbdb.cgi?sstr=3767153",
    "absolute_magnitude_h": 21.7,
    "estimated_diameter": {
        "kilometers": {
            "estimated_diameter_min": 0.1214940408,
            "estimated_diameter_max": 0.2716689341
        },
        "meters": {
            "estimated_diameter_min": 121.4940407996,
            "estimated_diameter_max": 271.6689340891
        },
        "miles": {
            "estimated_diameter_min": 0.0754928736,
            "estimated_diameter_max": 0.1688071972
        },
        "feet": {
            "estimated_diameter_min": 398.6025088171,
            "estimated_diameter_max": 891.3023057169
        }
    },
    "is_potentially_hazardous_asteroid": false,
    "close_approach_data": [
        {
            "close_approach_date": "2017-01-08",
            "close_approach_date_full": "2017-Jan-08 13:57",
            "epoch_date_close_approach": 1483883820000,
            "relative_velocity": {
                "kilometers_per_second": "21.212403269",
                "kilometers_per_hour": "76364.6517682924",
                "miles_per_hour": "47450.0248723592"
            },
            "miss_distance": {
                "astronomical": "0.2809898074",
                "lunar": "109.3050350786",
                "kilometers": "42035476.678750238",
                "miles": "26119634.0246517644"
            },
            "orbiting_body": "Earth"
        }
    ],
    "orbital_data": {
        "orbit_id": "7",
        "orbit_determination_date": "2017-04-06 08:20:43",
        "first_observation_date": "2017-01-27",
        "last_observation_date": "2017-02-06",
        "data_arc_in_days": 10,
        "observations_used": 35,
        "orbit_uncertainty": "8",
        "minimum_orbit_intersection": ".10362",
        "jupiter_tisserand_invariant": "4.276",
        "epoch_osculation": "2457783.5",
        "eccentricity": ".7377305136895097",
        "semi_major_axis": "1.425341777210845",
        "inclination": "27.71522353154588",
        "ascending_node_longitude": "306.1681391211337",
        "orbital_period": "621.5512566088482",
        "perihelion_distance": ".3738236557259697",
        "perihelion_argument": "48.50110295585892",
        "aphelion_distance": "2.476859898695721",
        "perihelion_time": "2457704.499439794135",
        "mean_anomaly": "45.75680826273231",
        "mean_motion": ".5791959973890835",
        "equinox": "J2000",
        "orbit_class": {
            "orbit_class_type": "APO",
            "orbit_class_description": "Near-Earth asteroid orbits which cross the Earth’s orbit similar to that of 1862 Apollo",
            "orbit_class_range": "a (semi-major axis) > 1.0 AU; q (perihelion) < 1.017 AU"
        }
    },
    "is_sentry_object": false
}